[{"Place_Id":30,"Place_Name":"القاهرة"},{"Place_Id":35,"Place_Name":"الجيزة"},{"Place_Id":559,"Place_Name":"الأسكندرية"},{"Place_Id":560,"Place_Name":"البحيره"},{"Place_Id":561,"Place_Name":"بنى سويف"},{"Place_Id":562,"Place_Name":"سوهاج"},{"Place_Id":563,"Place_Name":"كفرالشيخ"},{"Place_Id":564,"Place_Name":"المنيا"},{"Place_Id":565,"Place_Name":"قنا"},{"Place_Id":566,"Place_Name":"الفيوم"},{"Place_Id":567,"Place_Name":"الدقهليه"},{"Place_Id":568,"Place_Name":"المنوفيه"},{"Place_Id":569,"Place_Name":"اسيوط"},{"Place_Id":570,"Place_Name":"الشرقيه"},{"Place_Id":571,"Place_Name":"الغربيه"},{"Place_Id":572,"Place_Name":"اسوان"},{"Place_Id":573,"Place_Name":"البحر الأحمر"},{"Place_Id":574,"Place_Name":"الوادى الجديد"},{"Place_Id":575,"Place_Name":"مطروح"},{"Place_Id":576,"Place_Name":"شمال سيناء"},{"Place_Id":577,"Place_Name":"الاقصر"},{"Place_Id":586,"Place_Name":"الاسماعيليه"},{"Place_Id":587,"Place_Name":"السويس"},{"Place_Id":588,"Place_Name":"القليوبيه"},{"Place_Id":589,"Place_Name":"بورسعيد"},{"Place_Id":590,"Place_Name":"دمياط"},{"Place_Id":594,"Place_Name":"المنصورة"},{"Place_Id":596,"Place_Name":"طنطا"}]
