[{"Place_Id":599,"Place_Name":"ابوقير"},{"Place_Id":600,"Place_Name":"الطابيه"},{"Place_Id":601,"Place_Name":"معموره"},{"Place_Id":602,"Place_Name":"طوسون"},{"Place_Id":603,"Place_Name":"اصلاح"},{"Place_Id":604,"Place_Name":"منتزه"},{"Place_Id":605,"Place_Name":"مندره"},{"Place_Id":606,"Place_Name":"عصافره"},{"Place_Id":607,"Place_Name":"سيدى بشر بحرى"},{"Place_Id":608,"Place_Name":"سيدى بشر قبلى"},{"Place_Id":609,"Place_Name":"ميامى"},{"Place_Id":610,"Place_Name":"فيكتوريا"},{"Place_Id":611,"Place_Name":"ساعه"},{"Place_Id":612,"Place_Name":"سيوف"},{"Place_Id":613,"Place_Name":"الراس السوداء"},{"Place_Id":614,"Place_Name":"لوران"},{"Place_Id":615,"Place_Name":"سابا باشا"},{"Place_Id":616,"Place_Name":"جناكليس"},{"Place_Id":617,"Place_Name":"غبريال"},{"Place_Id":618,"Place_Name":"باكوس"},{"Place_Id":619,"Place_Name":"ظاهريه"},{"Place_Id":620,"Place_Name":"وينجت"},{"Place_Id":621,"Place_Name":"فلمنج"},{"Place_Id":622,"Place_Name":"ثروت"},{"Place_Id":623,"Place_Name":"هدايا"},{"Place_Id":624,"Place_Name":"زيزنيا"},{"Place_Id":625,"Place_Name":"بولكلى"},{"Place_Id":626,"Place_Name":"ستانلى"},{"Place_Id":627,"Place_Name":"رشدى"},{"Place_Id":628,"Place_Name":"مصطفى كامل"},{"Place_Id":629,"Place_Name":"سموحه"},{"Place_Id":630,"Place_Name":"سيدى جابر"},{"Place_Id":631,"Place_Name":"سبورتنج"},{"Place_Id":632,"Place_Name":"كيلوباترا"},{"Place_Id":633,"Place_Name":"ابراهيميه"},{"Place_Id":634,"Place_Name":"شاطبى"},{"Place_Id":635,"Place_Name":"محطه الرمل"},{"Place_Id":636,"Place_Name":"منشيه "},{"Place_Id":637,"Place_Name":"لبان"},{"Place_Id":638,"Place_Name":"عطارين"},{"Place_Id":639,"Place_Name":"محطه مصر"},{"Place_Id":640,"Place_Name":"قباري"},{"Place_Id":641,"Place_Name":"جليم"},{"Place_Id":642,"Place_Name":"سان ستيفانوا"},{"Place_Id":643,"Place_Name":"اقبال"},{"Place_Id":644,"Place_Name":"كامب شيزار"},{"Place_Id":645,"Place_Name":"شلالات"},{"Place_Id":646,"Place_Name":"بحرى"},{"Place_Id":647,"Place_Name":"راس التين"},{"Place_Id":648,"Place_Name":"محرم بك"},{"Place_Id":649,"Place_Name":"كرموز"},{"Place_Id":650,"Place_Name":"راغب"},{"Place_Id":651,"Place_Name":"حجر النواتيه"},{"Place_Id":652,"Place_Name":"منشيه النزهه"},{"Place_Id":653,"Place_Name":"شبان المسلمين"},{"Place_Id":654,"Place_Name":"اكاسيا"},{"Place_Id":655,"Place_Name":"الزوايده"},{"Place_Id":656,"Place_Name":"كوبرى الناموس"},{"Place_Id":657,"Place_Name":"وابور المياه"},{"Place_Id":658,"Place_Name":"ابوسليمان"},{"Place_Id":659,"Place_Name":"مطار"},{"Place_Id":660,"Place_Name":"متراس"},{"Place_Id":661,"Place_Name":"مكس"},{"Place_Id":662,"Place_Name":"هانوفيل"},{"Place_Id":663,"Place_Name":"بيطاش"},{"Place_Id":664,"Place_Name":"غيط العنب"},{"Place_Id":665,"Place_Name":"حضره"},{"Place_Id":666,"Place_Name":"عجمي"},{"Place_Id":667,"Place_Name":"باب شرق"},{"Place_Id":668,"Place_Name":"شارع فؤاد"},{"Place_Id":669,"Place_Name":"عماروه"},{"Place_Id":670,"Place_Name":"عوايد"},{"Place_Id":671,"Place_Name":"فلكي"},{"Place_Id":672,"Place_Name":"سلطان حسين"},{"Place_Id":673,"Place_Name":"دخيله"},{"Place_Id":674,"Place_Name":"خورشيد"},{"Place_Id":675,"Place_Name":"رمل الميرى"},{"Place_Id":676,"Place_Name":"كفر عبده"},{"Place_Id":677,"Place_Name":"وزاره"},{"Place_Id":678,"Place_Name":"شدس"},{"Place_Id":680,"Place_Name":"صفر"},{"Place_Id":682,"Place_Name":"ساحل الشمالى"},{"Place_Id":683,"Place_Name":"الحضره الجديده"},{"Place_Id":684,"Place_Name":"برج العرب"},{"Place_Id":685,"Place_Name":"عامريه"},{"Place_Id":686,"Place_Name":"النوباريه"},{"Place_Id":687,"Place_Name":"مرغم"},{"Place_Id":688,"Place_Name":"عبد القادر"},{"Place_Id":689,"Place_Name":"ابيس"},{"Place_Id":836,"Place_Name":"جرين بلازا"},{"Place_Id":837,"Place_Name":"ازاريطه"},{"Place_Id":861,"Place_Name":"ساحل"},{"Place_Id":949,"Place_Name":"زيزينيا"},{"Place_Id":950,"Place_Name":"سان ستيفانو"},{"Place_Id":953,"Place_Name":"كليوباترا"},{"Place_Id":954,"Place_Name":"سرايا"},{"Place_Id":955,"Place_Name":"درباله"},{"Place_Id":957,"Place_Name":"راس السوادء"},{"Place_Id":958,"Place_Name":"عيسوي"},{"Place_Id":959,"Place_Name":"ابي الدرداء"},{"Place_Id":960,"Place_Name":"اسكندر ابراهيم"},{"Place_Id":961,"Place_Name":"مراغي"},{"Place_Id":962,"Place_Name":"بكتوش"},{"Place_Id":964,"Place_Name":"وادي القمر"},{"Place_Id":965,"Place_Name":"كيلو 21"},{"Place_Id":966,"Place_Name":"خليل حماده"},{"Place_Id":968,"Place_Name":"زوايده"},{"Place_Id":970,"Place_Name":"امبروز"},{"Place_Id":971,"Place_Name":"عزبه سعد"},{"Place_Id":972,"Place_Name":"دوان تاون"},{"Place_Id":975,"Place_Name":"ابو يوسف"},{"Place_Id":977,"Place_Name":"كارفور"},{"Place_Id":979,"Place_Name":"6 اكتوبر"},{"Place_Id":980,"Place_Name":"ورديان"},{"Place_Id":982,"Place_Name":"رمل"},{"Place_Id":983,"Place_Name":"ارض شاكوس"},{"Place_Id":984,"Place_Name":"خليل الخياط"},{"Place_Id":985,"Place_Name":"خليل المصري"},{"Place_Id":986,"Place_Name":"قسم الرمل"},{"Place_Id":987,"Place_Name":"حضره البحريه"},{"Place_Id":989,"Place_Name":"باب الجديد"},{"Place_Id":992,"Place_Name":"معموره البلد"},{"Place_Id":994,"Place_Name":"جمرك"},{"Place_Id":998,"Place_Name":"صلاح سالم"},{"Place_Id":1000,"Place_Name":"كوم الدكه"},{"Place_Id":1001,"Place_Name":"معموره الشاطئ"},{"Place_Id":1003,"Place_Name":"سكه الجديده"},{"Place_Id":1005,"Place_Name":"ناصريه الرابعه"},{"Place_Id":1006,"Place_Name":"شاطئ النخيل"},{"Place_Id":1007,"Place_Name":"بيانكي"},{"Place_Id":1008,"Place_Name":"حي اللاتيني"},{"Place_Id":1009,"Place_Name":"غربال"},{"Place_Id":1010,"Place_Name":"انفوشي"},{"Place_Id":1012,"Place_Name":"كوم الشقافه"},{"Place_Id":1014,"Place_Name":"كينج مريوط"},{"Place_Id":1015,"Place_Name":"حضره القبليه"},{"Place_Id":1018,"Place_Name":"غيط الصعيدي"},{"Place_Id":1020,"Place_Name":"نادي الصيد"},{"Place_Id":2086,"Place_Name":"المعموره الشاطئ"},{"Place_Id":2091,"Place_Name":"  "},{"Place_Id":2092,"Place_Name":"مراقيا"},{"Place_Id":2120,"Place_Name":"بحري"},{"Place_Id":2125,"Place_Name":"العصافرة بحرى"},{"Place_Id":2143,"Place_Name":"العصافرة قبلى "},{"Place_Id":2145,"Place_Name":"رشدي"},{"Place_Id":2149,"Place_Name":"كفر عبد"},{"Place_Id":2185,"Place_Name":"محطة مصر"},{"Place_Id":2192,"Place_Name":"الحضره القبليه"},{"Place_Id":2298,"Place_Name":"النزهة"},{"Place_Id":2571,"Place_Name":"الضاهرية"},{"Place_Id":2591,"Place_Name":"منشية النزهه"},{"Place_Id":2593,"Place_Name":"سيدي بشر ترام"},{"Place_Id":2594,"Place_Name":"العوايد"},{"Place_Id":2599,"Place_Name":"بحيره"},{"Place_Id":2639,"Place_Name":"سيدي جابر الشيخ"},{"Place_Id":2647,"Place_Name":"شوتس"},{"Place_Id":2652,"Place_Name":"رشيد"},{"Place_Id":2691,"Place_Name":"الفراهده"},{"Place_Id":2692,"Place_Name":"حي اللبان"},{"Place_Id":2727,"Place_Name":"منطقة شرق اسكندرية "},{"Place_Id":2730,"Place_Name":"دكور"},{"Place_Id":2735,"Place_Name":"ملاحه"}]