[{"Place_Id":2077,"Place_Name":"اسوان"},{"Place_Id":2418,"Place_Name":"اطلس"},{"Place_Id":2419,"Place_Name":"الشيخ هارون "},{"Place_Id":2420,"Place_Name":"الصداقة "},{"Place_Id":2422,"Place_Name":"المحمودية "},{"Place_Id":2535,"Place_Name":"الحكروب"},{"Place_Id":2536,"Place_Name":"السيل"},{"Place_Id":2541,"Place_Name":"البركة"},{"Place_Id":2542,"Place_Name":"الشارع الجديد"},{"Place_Id":2543,"Place_Name":"الشواربي"},{"Place_Id":2544,"Place_Name":"سوق الخميس"},{"Place_Id":2545,"Place_Name":"كوم امبو "},{"Place_Id":2546,"Place_Name":"ادفو "},{"Place_Id":2547,"Place_Name":"دراو"},{"Place_Id":2548,"Place_Name":"السباعية "},{"Place_Id":2549,"Place_Name":"كلابشة"},{"Place_Id":2550,"Place_Name":"سلوا"},{"Place_Id":2551,"Place_Name":"الخزان "},{"Place_Id":2552,"Place_Name":"الكرور"},{"Place_Id":2553,"Place_Name":"عباس فريد"},{"Place_Id":2554,"Place_Name":"ش المطار"},{"Place_Id":2555,"Place_Name":" الحصايا"},{"Place_Id":2556,"Place_Name":"غرب اسوان "},{"Place_Id":2557,"Place_Name":"نصر النوبة "},{"Place_Id":2558,"Place_Name":"ابو سمبل"},{"Place_Id":2569,"Place_Name":"حى العقاد"},{"Place_Id":2570,"Place_Name":"ش محكمة الاسرة "},{"Place_Id":2572,"Place_Name":"ابو الريش"},{"Place_Id":2573,"Place_Name":"ابو الريش بحرى "},{"Place_Id":2583,"Place_Name":"كيما"},{"Place_Id":2595,"Place_Name":"طريق السادات"},{"Place_Id":2596,"Place_Name":"الشلال"},{"Place_Id":2623,"Place_Name":"المسلا"},{"Place_Id":2684,"Place_Name":"السد العالى "},{"Place_Id":2736,"Place_Name":"استداد اسوان"},{"Place_Id":2740,"Place_Name":"صحارى "}]