[{"Place_Id":31,"Place_Name":"مصر الجديده"},{"Place_Id":32,"Place_Name":"مدينة نصر"},{"Place_Id":33,"Place_Name":"حلوان"},{"Place_Id":34,"Place_Name":"معادي"},{"Place_Id":38,"Place_Name":"زهراء المعادي"},{"Place_Id":39,"Place_Name":"سيده زينب"},{"Place_Id":40,"Place_Name":"شبرا"},{"Place_Id":41,"Place_Name":"مهندسين"},{"Place_Id":690,"Place_Name":"مدينتى"},{"Place_Id":691,"Place_Name":"شروق"},{"Place_Id":692,"Place_Name":"رحاب"},{"Place_Id":693,"Place_Name":"طريق السويس"},{"Place_Id":694,"Place_Name":"تجمع الخامس"},{"Place_Id":695,"Place_Name":"قطاميه"},{"Place_Id":696,"Place_Name":"ارض الجولف"},{"Place_Id":697,"Place_Name":"امتداد رمسيس"},{"Place_Id":698,"Place_Name":"منطقة 4.5"},{"Place_Id":699,"Place_Name":"منشية ناصر"},{"Place_Id":700,"Place_Name":"عباسيه"},{"Place_Id":701,"Place_Name":"باب الشعريه"},{"Place_Id":702,"Place_Name":"دويقه"},{"Place_Id":703,"Place_Name":"موسكى"},{"Place_Id":704,"Place_Name":"ظاهر"},{"Place_Id":705,"Place_Name":"عتبه"},{"Place_Id":706,"Place_Name":"الحسين"},{"Place_Id":707,"Place_Name":"دراسه"},{"Place_Id":708,"Place_Name":"الهضبة الوسطى"},{"Place_Id":709,"Place_Name":"مقطم"},{"Place_Id":710,"Place_Name":"سيده عائشه"},{"Place_Id":711,"Place_Name":"عين الصيرة"},{"Place_Id":712,"Place_Name":"مدينة الفسطاط"},{"Place_Id":713,"Place_Name":"الامام الشافعى"},{"Place_Id":714,"Place_Name":"مدينة بدر"},{"Place_Id":715,"Place_Name":"عاشر من رمضان"},{"Place_Id":716,"Place_Name":"نهضه"},{"Place_Id":717,"Place_Name":"مدينة السلام"},{"Place_Id":718,"Place_Name":"هايكستب"},{"Place_Id":719,"Place_Name":"حرفيين"},{"Place_Id":720,"Place_Name":"مدينة قباء"},{"Place_Id":721,"Place_Name":"جسر السويس"},{"Place_Id":722,"Place_Name":"نزهه الجديده"},{"Place_Id":723,"Place_Name":"مساكن شيراتون"},{"Place_Id":724,"Place_Name":"عين شمس"},{"Place_Id":725,"Place_Name":"منشية التحرير"},{"Place_Id":726,"Place_Name":"مطريه"},{"Place_Id":727,"Place_Name":"حلمية الزيتون"},{"Place_Id":728,"Place_Name":"نعام"},{"Place_Id":729,"Place_Name":"حمامات القبه"},{"Place_Id":730,"Place_Name":"كوبرى القبه"},{"Place_Id":731,"Place_Name":"السبع عمارات"},{"Place_Id":732,"Place_Name":"روكسى"},{"Place_Id":733,"Place_Name":"منشية البكرى"},{"Place_Id":734,"Place_Name":"ماظه"},{"Place_Id":735,"Place_Name":"حدائق القبه"},{"Place_Id":736,"Place_Name":"منشية الصدر"},{"Place_Id":737,"Place_Name":"دير الملاك"},{"Place_Id":738,"Place_Name":"اميريه"},{"Place_Id":739,"Place_Name":"قناطر"},{"Place_Id":740,"Place_Name":"قليوب"},{"Place_Id":741,"Place_Name":"باسوس"},{"Place_Id":742,"Place_Name":"ابو زعبل"},{"Place_Id":743,"Place_Name":"قلح"},{"Place_Id":744,"Place_Name":"خانكه"},{"Place_Id":745,"Place_Name":"شبرا الخيمة"},{"Place_Id":746,"Place_Name":"المؤسسة"},{"Place_Id":747,"Place_Name":"بيجام"},{"Place_Id":748,"Place_Name":"بهتيم"},{"Place_Id":749,"Place_Name":"مرج"},{"Place_Id":750,"Place_Name":"مؤسسة الزكاة"},{"Place_Id":751,"Place_Name":"خصوص"},{"Place_Id":752,"Place_Name":"مسطرد"},{"Place_Id":753,"Place_Name":"عزبة النخل"},{"Place_Id":754,"Place_Name":"مظلات"},{"Place_Id":755,"Place_Name":"عبود"},{"Place_Id":756,"Place_Name":"وايلى"},{"Place_Id":757,"Place_Name":"زاويه الحمراء"},{"Place_Id":758,"Place_Name":"شرابيه"},{"Place_Id":759,"Place_Name":"شبرا البلد"},{"Place_Id":760,"Place_Name":"رمسيس"},{"Place_Id":761,"Place_Name":"غمرة"},{"Place_Id":762,"Place_Name":"السكاكينى"},{"Place_Id":763,"Place_Name":"فجاله"},{"Place_Id":764,"Place_Name":"شبرا مصر"},{"Place_Id":765,"Place_Name":"ابو وافية"},{"Place_Id":766,"Place_Name":"الشيخ رمضان"},{"Place_Id":767,"Place_Name":"روض الفرج"},{"Place_Id":768,"Place_Name":"بولاق ابو العلا"},{"Place_Id":769,"Place_Name":"جزيرة بدران"},{"Place_Id":770,"Place_Name":"سبتيه "},{"Place_Id":771,"Place_Name":"وسط البلد"},{"Place_Id":772,"Place_Name":"جاردن سيتى"},{"Place_Id":773,"Place_Name":"باب اللوق"},{"Place_Id":774,"Place_Name":"منيره"},{"Place_Id":775,"Place_Name":"قصر العينى"},{"Place_Id":776,"Place_Name":"المبتديان"},{"Place_Id":777,"Place_Name":"قلعه"},{"Place_Id":778,"Place_Name":"باب الخلق"},{"Place_Id":779,"Place_Name":"زمالك"},{"Place_Id":780,"Place_Name":"مناشى"},{"Place_Id":781,"Place_Name":"وراق"},{"Place_Id":782,"Place_Name":"دقى"},{"Place_Id":783,"Place_Name":"امبابه"},{"Place_Id":784,"Place_Name":"عجوزه"},{"Place_Id":785,"Place_Name":"بشتيل"},{"Place_Id":786,"Place_Name":"براجيل"},{"Place_Id":787,"Place_Name":"بين السرايات"},{"Place_Id":788,"Place_Name":"15 مايو"},{"Place_Id":789,"Place_Name":"طره"},{"Place_Id":790,"Place_Name":"معصره"},{"Place_Id":791,"Place_Name":"كوزكا"},{"Place_Id":792,"Place_Name":"معادى"},{"Place_Id":793,"Place_Name":"صقر قريش"},{"Place_Id":794,"Place_Name":"المعراج السفلى"},{"Place_Id":795,"Place_Name":"دار السلام"},{"Place_Id":796,"Place_Name":"بساتين"},{"Place_Id":797,"Place_Name":"اثر النبى"},{"Place_Id":798,"Place_Name":"مصر القديمه"},{"Place_Id":799,"Place_Name":"الجيارة"},{"Place_Id":800,"Place_Name":"ملك الصالح"},{"Place_Id":801,"Place_Name":"منيل"},{"Place_Id":839,"Place_Name":"قليوب البلد"},{"Place_Id":840,"Place_Name":"جبل اصفر"},{"Place_Id":841,"Place_Name":"زيتون"},{"Place_Id":842,"Place_Name":"سرايا القبه"},{"Place_Id":843,"Place_Name":"سريقاوس"},{"Place_Id":844,"Place_Name":"اباجيه"},{"Place_Id":845,"Place_Name":"تجمع التالت"},{"Place_Id":846,"Place_Name":"تجمع الاول"},{"Place_Id":851,"Place_Name":"مدينة المستقبل "},{"Place_Id":860,"Place_Name":"كورنيش النيل"},{"Place_Id":862,"Place_Name":"كفر حكيم"},{"Place_Id":865,"Place_Name":"حدائق حلوان"},{"Place_Id":867,"Place_Name":"طره البلد"},{"Place_Id":869,"Place_Name":"عزبه خيرالله"},{"Place_Id":870,"Place_Name":"مدينتي"},{"Place_Id":871,"Place_Name":"عبور"},{"Place_Id":876,"Place_Name":"صلاح سالم"},{"Place_Id":877,"Place_Name":"مطار القاهره"},{"Place_Id":879,"Place_Name":"شيراتون"},{"Place_Id":880,"Place_Name":"شارع النزهه"},{"Place_Id":881,"Place_Name":"ميدان الساعه"},{"Place_Id":883,"Place_Name":"سلام"},{"Place_Id":888,"Place_Name":"زهراء"},{"Place_Id":889,"Place_Name":"حي العاشر"},{"Place_Id":890,"Place_Name":"منشيه نصر"},{"Place_Id":891,"Place_Name":"مدينه توفيق"},{"Place_Id":892,"Place_Name":"مصطفي النحاس"},{"Place_Id":893,"Place_Name":"كيلو 4.5 النادي الاهلي"},{"Place_Id":894,"Place_Name":"سيتي ستارز"},{"Place_Id":897,"Place_Name":"حي السابع"},{"Place_Id":898,"Place_Name":"ازهر"},{"Place_Id":899,"Place_Name":"شارع الجمهوريه"},{"Place_Id":900,"Place_Name":"شارع مراد"},{"Place_Id":901,"Place_Name":"اوبرا"},{"Place_Id":903,"Place_Name":"تحرير"},{"Place_Id":905,"Place_Name":"شارع عدلي "},{"Place_Id":906,"Place_Name":"تبيين"},{"Place_Id":908,"Place_Name":"ضرب الاحمر"},{"Place_Id":909,"Place_Name":"حلميه الجديده"},{"Place_Id":910,"Place_Name":"ضاهر"},{"Place_Id":911,"Place_Name":"منيره الغربيه"},{"Place_Id":912,"Place_Name":"مكرم عبيد"},{"Place_Id":913,"Place_Name":"شارع الطيران"},{"Place_Id":914,"Place_Name":"هيليوبلس"},{"Place_Id":915,"Place_Name":"حدائق الزيتون"},{"Place_Id":916,"Place_Name":"نزهه"},{"Place_Id":917,"Place_Name":"قلج"},{"Place_Id":918,"Place_Name":"الف مسكن"},{"Place_Id":919,"Place_Name":"عباس العقاد"},{"Place_Id":921,"Place_Name":"نصر الثوره"},{"Place_Id":931,"Place_Name":"ش بورسعيد"},{"Place_Id":932,"Place_Name":"ميدان الجيش"},{"Place_Id":933,"Place_Name":"اوسيم"},{"Place_Id":934,"Place_Name":"ميدان لبنان"},{"Place_Id":935,"Place_Name":"احمد عرابي"},{"Place_Id":941,"Place_Name":"وادي حوف"},{"Place_Id":943,"Place_Name":"ازبكيه"},{"Place_Id":945,"Place_Name":"سلام اول"},{"Place_Id":946,"Place_Name":"جماليه"},{"Place_Id":947,"Place_Name":"عين شمس الشرقيه"},{"Place_Id":948,"Place_Name":"عين شمس الغريبه"},{"Place_Id":963,"Place_Name":"موؤسسه الذكاء"},{"Place_Id":967,"Place_Name":"سواح"},{"Place_Id":969,"Place_Name":"بولاق"},{"Place_Id":973,"Place_Name":"معادي الجديده"},{"Place_Id":974,"Place_Name":"خليه"},{"Place_Id":976,"Place_Name":"جبل الاخضر"},{"Place_Id":978,"Place_Name":"درب الاحمر"},{"Place_Id":981,"Place_Name":"شارع الجيش"},{"Place_Id":988,"Place_Name":"عمارات العبور"},{"Place_Id":990,"Place_Name":"عين حلوان"},{"Place_Id":991,"Place_Name":"منيل الروضه"},{"Place_Id":993,"Place_Name":"غطاطي"},{"Place_Id":997,"Place_Name":"زهراء مدينه نصر"},{"Place_Id":999,"Place_Name":"عزبه الهجانه"},{"Place_Id":1002,"Place_Name":"عابدين"},{"Place_Id":1004,"Place_Name":"كيت كات"},{"Place_Id":1013,"Place_Name":"الحوامديه"},{"Place_Id":1016,"Place_Name":"منيل شيخا"},{"Place_Id":1017,"Place_Name":"دائري"},{"Place_Id":1019,"Place_Name":"زين العابدين"},{"Place_Id":2070,"Place_Name":"asdasd"},{"Place_Id":2088,"Place_Name":"قصر القبة"},{"Place_Id":2089,"Place_Name":"مصر الجديدة"},{"Place_Id":2090,"Place_Name":"حدائق المعادي "},{"Place_Id":2093,"Place_Name":"التجمع الاول "},{"Place_Id":2094,"Place_Name":"بولاق الدكرور"},{"Place_Id":2095,"Place_Name":"القاهره الجديده"},{"Place_Id":2097,"Place_Name":"التجمع الثالث"},{"Place_Id":2098,"Place_Name":"مدينه بدر"},{"Place_Id":2099,"Place_Name":"ارض الجنينه"},{"Place_Id":2100,"Place_Name":"حدائق الاهرام"},{"Place_Id":2102,"Place_Name":"دقي"},{"Place_Id":2103,"Place_Name":"الشيخ زايد"},{"Place_Id":2104,"Place_Name":"التجمع الأول"},{"Place_Id":2105,"Place_Name":"معراج "},{"Place_Id":2106,"Place_Name":"حدايق حلوان"},{"Place_Id":2110,"Place_Name":"التجمع5"},{"Place_Id":2111,"Place_Name":"المرج الجديد"},{"Place_Id":2113,"Place_Name":"لازوغلى"},{"Place_Id":2115,"Place_Name":"مصرالجديدة"},{"Place_Id":2119,"Place_Name":"تجمع اول"},{"Place_Id":2121,"Place_Name":"القاهرة الجديده "},{"Place_Id":2127,"Place_Name":"الاميرية"},{"Place_Id":2128,"Place_Name":"الزتون"},{"Place_Id":2129,"Place_Name":"زاوية حمراء"},{"Place_Id":2130,"Place_Name":"زهراء الجديده"},{"Place_Id":2131,"Place_Name":"مدنتى"},{"Place_Id":2133,"Place_Name":"حي الواحه"},{"Place_Id":2139,"Place_Name":"التجمع الخامس"},{"Place_Id":2140,"Place_Name":"مدينه السلام"},{"Place_Id":2141,"Place_Name":"النزهة الجديدة"},{"Place_Id":2142,"Place_Name":"الزمالك"},{"Place_Id":2146,"Place_Name":"ارض اللواء "},{"Place_Id":2147,"Place_Name":"الخليفه"},{"Place_Id":2150,"Place_Name":"السيدة عيشة"},{"Place_Id":2151,"Place_Name":"القناطر الخيرية "},{"Place_Id":2154,"Place_Name":"الوايلي "},{"Place_Id":2156,"Place_Name":"مطبعه"},{"Place_Id":2157,"Place_Name":"سوق السراميك والمهاجرين"},{"Place_Id":2161,"Place_Name":"التجمع التالت"},{"Place_Id":2162,"Place_Name":"العياط"},{"Place_Id":2163,"Place_Name":"المعادى"},{"Place_Id":2167,"Place_Name":"نزهه العبور"},{"Place_Id":2168,"Place_Name":"منشيه البكري"},{"Place_Id":2170,"Place_Name":"التحرير"},{"Place_Id":2175,"Place_Name":"العبور"},{"Place_Id":2176,"Place_Name":"القللي"},{"Place_Id":2177,"Place_Name":"جامعه القاهرة"},{"Place_Id":2178,"Place_Name":"حدائق المعادى "},{"Place_Id":2179,"Place_Name":"الزاوية الحمراء"},{"Place_Id":2180,"Place_Name":"شرابية"},{"Place_Id":2183,"Place_Name":"دواجن "},{"Place_Id":2184,"Place_Name":"مصر القديمة"},{"Place_Id":2186,"Place_Name":"سيدة عائشة "},{"Place_Id":2188,"Place_Name":"الاوتوستراد "},{"Place_Id":2189,"Place_Name":"كوتسيكا "},{"Place_Id":2190,"Place_Name":"المعادي"},{"Place_Id":2191,"Place_Name":"مجمع التحرير"},{"Place_Id":2194,"Place_Name":"منشيه البكرى"},{"Place_Id":2196,"Place_Name":"التجمع "},{"Place_Id":2197,"Place_Name":"الخلفاوى "},{"Place_Id":2198,"Place_Name":"المقطم"},{"Place_Id":2199,"Place_Name":"حلميه الزيتون"},{"Place_Id":2200,"Place_Name":"عزبه النخل "},{"Place_Id":2202,"Place_Name":"ثكنات المعادى "},{"Place_Id":2204,"Place_Name":"المناشي"},{"Place_Id":2206,"Place_Name":"الجراج"},{"Place_Id":2207,"Place_Name":"ميدان الحجاز "},{"Place_Id":2208,"Place_Name":"القلج"},{"Place_Id":2209,"Place_Name":"القلج البلد"},{"Place_Id":2213,"Place_Name":"العرب"},{"Place_Id":2214,"Place_Name":"مساكن عين شمس"},{"Place_Id":2216,"Place_Name":"مساكن ابو غزاله"},{"Place_Id":2217,"Place_Name":"محكمة مصر الجديدة"},{"Place_Id":2218,"Place_Name":"م الحجاز"},{"Place_Id":2220,"Place_Name":"خارجة المطرية"},{"Place_Id":2221,"Place_Name":"ميدان المطرية"},{"Place_Id":2223,"Place_Name":"التجنيد"},{"Place_Id":2224,"Place_Name":"الماظة"},{"Place_Id":2225,"Place_Name":"مدينة الرحاب"},{"Place_Id":2226,"Place_Name":"القطامية"},{"Place_Id":2227,"Place_Name":"السيدة زينب"},{"Place_Id":2228,"Place_Name":"القلعة"},{"Place_Id":2230,"Place_Name":"قباء"},{"Place_Id":2231,"Place_Name":"بدر"},{"Place_Id":2232,"Place_Name":"تريومف"},{"Place_Id":2235,"Place_Name":"الميرغنى"},{"Place_Id":2238,"Place_Name":"منشيه التحرير"},{"Place_Id":2261,"Place_Name":"ميدان سفير"},{"Place_Id":2264,"Place_Name":"ميدان تريموف"},{"Place_Id":2272,"Place_Name":"الكلية الحربية"},{"Place_Id":2274,"Place_Name":"سانت فاتيما"},{"Place_Id":2276,"Place_Name":"محمد فريد"},{"Place_Id":2281,"Place_Name":"عمارات ميلسا بجوار سيتى ستارز"},{"Place_Id":2282,"Place_Name":"كلية البنات"},{"Place_Id":2283,"Place_Name":"نبيل الوقاد"},{"Place_Id":2286,"Place_Name":"حديقة بدر"},{"Place_Id":2289,"Place_Name":"عمارات رابعة الاستثمارى"},{"Place_Id":2290,"Place_Name":"زينهم"},{"Place_Id":2291,"Place_Name":"سيدة نفيسة"},{"Place_Id":2292,"Place_Name":"طريق مصر اسكندرية الصحراوى"},{"Place_Id":2295,"Place_Name":"الفسطاط"},{"Place_Id":2296,"Place_Name":"زهراء مصر القديمة"},{"Place_Id":2300,"Place_Name":"طريق مصر اسماعلية الصحراوي"},{"Place_Id":2302,"Place_Name":"هرم"},{"Place_Id":2307,"Place_Name":"الحى الاول"},{"Place_Id":2308,"Place_Name":"الحى الثانى"},{"Place_Id":2317,"Place_Name":"حى القضاة"},{"Place_Id":2323,"Place_Name":"البنفسج"},{"Place_Id":2324,"Place_Name":"الياسمين"},{"Place_Id":2375,"Place_Name":"العاشر من رمضان"},{"Place_Id":2382,"Place_Name":"الحلمية الجديدة "},{"Place_Id":2383,"Place_Name":"قليوبيه"},{"Place_Id":2384,"Place_Name":"حدايق شبرا"},{"Place_Id":2385,"Place_Name":"الساحل "},{"Place_Id":2386,"Place_Name":"مدينه الشروق"},{"Place_Id":2388,"Place_Name":"شبراالبلد"},{"Place_Id":2390,"Place_Name":"المعراج العلوى"},{"Place_Id":2393,"Place_Name":"الدواجن"},{"Place_Id":2394,"Place_Name":"مدينة الشروق"},{"Place_Id":2396,"Place_Name":"الدراسة "},{"Place_Id":2416,"Place_Name":"ناهيا"},{"Place_Id":2447,"Place_Name":"مصدق القي"},{"Place_Id":2455,"Place_Name":"الحي الثامن"},{"Place_Id":2456,"Place_Name":"الحي الثامين"},{"Place_Id":2457,"Place_Name":"المنطقه "},{"Place_Id":2458,"Place_Name":"المنطقه السادسه "},{"Place_Id":2459,"Place_Name":"الطيران "},{"Place_Id":2460,"Place_Name":"المنطقه التاسعه "},{"Place_Id":2461,"Place_Name":"حي السفرات "},{"Place_Id":2471,"Place_Name":"الخانكة "},{"Place_Id":2474,"Place_Name":"المنطقه الثامنه "},{"Place_Id":2475,"Place_Name":"المنطقة الاولى"},{"Place_Id":2476,"Place_Name":"احمد فخرى "},{"Place_Id":2477,"Place_Name":"المقاولين العرب"},{"Place_Id":2478,"Place_Name":"حسن المأمون "},{"Place_Id":2479,"Place_Name":"يوسف عباس"},{"Place_Id":2481,"Place_Name":"رابعه "},{"Place_Id":2482,"Place_Name":"الحى السادس"},{"Place_Id":2483,"Place_Name":"النادى الاهلى "},{"Place_Id":2484,"Place_Name":"حي التاسع "},{"Place_Id":2485,"Place_Name":"المنطقة العاشرة"},{"Place_Id":2486,"Place_Name":"المنطقه العاشره"},{"Place_Id":2487,"Place_Name":"طريق النصر"},{"Place_Id":2488,"Place_Name":"المنطقة السادسة"},{"Place_Id":2489,"Place_Name":"الحديقة الدولية"},{"Place_Id":2491,"Place_Name":"مساكن الشروق"},{"Place_Id":2492,"Place_Name":"حي السفارات "},{"Place_Id":2493,"Place_Name":"حسنين هيكل "},{"Place_Id":2496,"Place_Name":"الواحة"},{"Place_Id":2511,"Place_Name":"وراق حضر"},{"Place_Id":2532,"Place_Name":"الطوب الرملى"},{"Place_Id":2559,"Place_Name":"النزهة"},{"Place_Id":2577,"Place_Name":"الحلميه القديمه"},{"Place_Id":2592,"Place_Name":"الدمرداش"},{"Place_Id":2598,"Place_Name":"الكوربة "},{"Place_Id":2610,"Place_Name":"مرغنى"},{"Place_Id":2611,"Place_Name":"المرغنى"},{"Place_Id":2614,"Place_Name":"السيده نفيسه"},{"Place_Id":2616,"Place_Name":"القاهرة الجديدة "},{"Place_Id":2619,"Place_Name":"طريق الدائري"},{"Place_Id":2621,"Place_Name":"امبابة "},{"Place_Id":2631,"Place_Name":"الهجان"},{"Place_Id":2633,"Place_Name":"العجوزه"},{"Place_Id":2638,"Place_Name":"شارع السودان"},{"Place_Id":2644,"Place_Name":"عزبة بنيامين"},{"Place_Id":2646,"Place_Name":"خاتم المرسلين"},{"Place_Id":2667,"Place_Name":"السيده زينب"},{"Place_Id":2682,"Place_Name":"المرج القديمه"},{"Place_Id":2687,"Place_Name":"6 اكتوبر"},{"Place_Id":2697,"Place_Name":"مسترد"},{"Place_Id":2703,"Place_Name":"العباسيه"},{"Place_Id":2718,"Place_Name":"0"},{"Place_Id":2734,"Place_Name":"العاصمة الادارية الجديدة"},{"Place_Id":2746,"Place_Name":"مدينة السادات "},{"Place_Id":2754,"Place_Name":"المعادي الجديدة"},{"Place_Id":2758,"Place_Name":"القصيرين"}]