[{"Place_Id":679,"Place_Name":"الغربية"},{"Place_Id":1029,"Place_Name":"شارع البحر"},{"Place_Id":1030,"Place_Name":"شارع سعيد"},{"Place_Id":1031,"Place_Name":"شارع الحلو"},{"Place_Id":1032,"Place_Name":"زفتى"},{"Place_Id":1033,"Place_Name":"سنطه"},{"Place_Id":1034,"Place_Name":"قطور"},{"Place_Id":1035,"Place_Name":"محله الكبرى"},{"Place_Id":1036,"Place_Name":"بسيون"},{"Place_Id":1037,"Place_Name":"كفر الزيات"},{"Place_Id":1038,"Place_Name":"سمنود"},{"Place_Id":1039,"Place_Name":"خارج طنطا"},{"Place_Id":1040,"Place_Name":"شارع النحاس"},{"Place_Id":1041,"Place_Name":"شارع النادي"},{"Place_Id":1042,"Place_Name":"شارع سيد عبداللطيف"},{"Place_Id":1044,"Place_Name":"شارع الشيتي"},{"Place_Id":1045,"Place_Name":"شارع بطرس"},{"Place_Id":1046,"Place_Name":"شارع توت عنخ امون"},{"Place_Id":1047,"Place_Name":"شارع صدقي"},{"Place_Id":1048,"Place_Name":"شارع حسن رضوان"},{"Place_Id":1049,"Place_Name":"شارع محب"},{"Place_Id":1051,"Place_Name":"شارع المعتصم"},{"Place_Id":1052,"Place_Name":"شارع المتوكل"},{"Place_Id":1053,"Place_Name":"شارع عمر بن عبدالعزيز"},{"Place_Id":1054,"Place_Name":"شارع الامين"},{"Place_Id":1055,"Place_Name":"شارع الرفاعي"},{"Place_Id":1057,"Place_Name":"شارع شوقي"},{"Place_Id":1058,"Place_Name":"شارع شفيق"},{"Place_Id":1059,"Place_Name":"عجيزي"},{"Place_Id":1060,"Place_Name":"سيجر"},{"Place_Id":1061,"Place_Name":"استاد"},{"Place_Id":1062,"Place_Name":"سبرباي"},{"Place_Id":1063,"Place_Name":"جمله"},{"Place_Id":1064,"Place_Name":"بن الفارض"},{"Place_Id":1065,"Place_Name":"جلاء"},{"Place_Id":1066,"Place_Name":"جانبيه"},{"Place_Id":1067,"Place_Name":"سكه المحله"},{"Place_Id":1068,"Place_Name":"قحافه"},{"Place_Id":1069,"Place_Name":"ميدان اسكندريه"},{"Place_Id":2686,"Place_Name":"المحلة الكبرى "},{"Place_Id":2719,"Place_Name":"طنطا"}]