[{"Place_Id":36,"Place_Name":"هرم"},{"Place_Id":37,"Place_Name":"اكتوبر"},{"Place_Id":802,"Place_Name":"جيزه"},{"Place_Id":803,"Place_Name":"منيب"},{"Place_Id":804,"Place_Name":"منيل شيحة"},{"Place_Id":805,"Place_Name":"ابو النمرس"},{"Place_Id":806,"Place_Name":"حوامديه"},{"Place_Id":807,"Place_Name":"بدرشين"},{"Place_Id":808,"Place_Name":"عياط"},{"Place_Id":809,"Place_Name":"فيصل"},{"Place_Id":810,"Place_Name":"عمرانيه "},{"Place_Id":811,"Place_Name":"طالبيه"},{"Place_Id":812,"Place_Name":"الكنيسة"},{"Place_Id":813,"Place_Name":"كوم الاخضر"},{"Place_Id":814,"Place_Name":"مريوطيه"},{"Place_Id":815,"Place_Name":"شبرامنت"},{"Place_Id":816,"Place_Name":"سقارة"},{"Place_Id":817,"Place_Name":"كفر الجبل"},{"Place_Id":818,"Place_Name":"نزلة السمان"},{"Place_Id":819,"Place_Name":"الرماية"},{"Place_Id":820,"Place_Name":"كفر طهرمس"},{"Place_Id":821,"Place_Name":"صفط اللبن"},{"Place_Id":822,"Place_Name":"بولاق الدكرور"},{"Place_Id":823,"Place_Name":"ارض اللواء"},{"Place_Id":824,"Place_Name":"المعتمدية"},{"Place_Id":825,"Place_Name":"ناهيا"},{"Place_Id":826,"Place_Name":"منشية البكارى"},{"Place_Id":827,"Place_Name":"كرداسه"},{"Place_Id":828,"Place_Name":"ابو رواش"},{"Place_Id":829,"Place_Name":"المنصورية"},{"Place_Id":830,"Place_Name":"الطريق الصحراوى"},{"Place_Id":831,"Place_Name":"حدائق الاهرام"},{"Place_Id":832,"Place_Name":"6 اكتوبر"},{"Place_Id":833,"Place_Name":"شيخ زايد"},{"Place_Id":848,"Place_Name":"دريم"},{"Place_Id":849,"Place_Name":"حي الاشجار"},{"Place_Id":850,"Place_Name":"حي الفردوس"},{"Place_Id":852,"Place_Name":"صف"},{"Place_Id":866,"Place_Name":"جامعه القاهره"},{"Place_Id":868,"Place_Name":"ميت عقبه"},{"Place_Id":872,"Place_Name":"منشيه دهشور"},{"Place_Id":873,"Place_Name":"ابو سير"},{"Place_Id":874,"Place_Name":"صقاره"},{"Place_Id":875,"Place_Name":"ابو زارع"},{"Place_Id":878,"Place_Name":"قاهره الجديده"},{"Place_Id":882,"Place_Name":"تبين"},{"Place_Id":884,"Place_Name":"مدينه الضباط الرمايه"},{"Place_Id":885,"Place_Name":"طريق مصر اسكندريه الصحراوي"},{"Place_Id":886,"Place_Name":"قريه زكيه"},{"Place_Id":887,"Place_Name":"منطقه صناعيه"},{"Place_Id":907,"Place_Name":"ساقيه مكى"},{"Place_Id":922,"Place_Name":"مدكور هرم"},{"Place_Id":923,"Place_Name":"عمارات الضباط"},{"Place_Id":924,"Place_Name":"نصر الدين"},{"Place_Id":925,"Place_Name":"اول الهرم"},{"Place_Id":926,"Place_Name":"طالبيه هرم"},{"Place_Id":927,"Place_Name":"طالبيه فيصل"},{"Place_Id":928,"Place_Name":"عشرين"},{"Place_Id":929,"Place_Name":"اول فيصل"},{"Place_Id":930,"Place_Name":"ترعه عبد العال"},{"Place_Id":936,"Place_Name":"مريوطيه هرم"},{"Place_Id":937,"Place_Name":"عريش"},{"Place_Id":938,"Place_Name":"تعاون"},{"Place_Id":939,"Place_Name":"مطبعه"},{"Place_Id":940,"Place_Name":"حسن محمد"},{"Place_Id":944,"Place_Name":"شئون الجيزه"},{"Place_Id":956,"Place_Name":"دقي"},{"Place_Id":1011,"Place_Name":"هضبه الهرم"},{"Place_Id":2085,"Place_Name":"المهندسين "},{"Place_Id":2108,"Place_Name":"فسطاط"},{"Place_Id":2116,"Place_Name":"حدائق الاهرام00"},{"Place_Id":2117,"Place_Name":"حدايق الاهراام"},{"Place_Id":2118,"Place_Name":"الهرم "},{"Place_Id":2122,"Place_Name":"امبابة"},{"Place_Id":2132,"Place_Name":"اسكندريه الصحراوى "},{"Place_Id":2135,"Place_Name":"او سيم "},{"Place_Id":2136,"Place_Name":"اوسيم"},{"Place_Id":2148,"Place_Name":"رمايه"},{"Place_Id":2152,"Place_Name":"المنيل "},{"Place_Id":2153,"Place_Name":"الوراق"},{"Place_Id":2158,"Place_Name":"البراجيل"},{"Place_Id":2171,"Place_Name":"الصف"},{"Place_Id":2173,"Place_Name":"طموه"},{"Place_Id":2174,"Place_Name":"الترعه البولاقيه"},{"Place_Id":2205,"Place_Name":"بشتيل"},{"Place_Id":2234,"Place_Name":"الخليفة المامون"},{"Place_Id":2236,"Place_Name":"ابن سندر"},{"Place_Id":2239,"Place_Name":"6 اكتوبر - الحى الاول"},{"Place_Id":2240,"Place_Name":"6 اكتوبر - الحى الثانى"},{"Place_Id":2241,"Place_Name":"6 اكتوبر - الحى الثالث"},{"Place_Id":2242,"Place_Name":"6 اكتوبر - الحى الرابع"},{"Place_Id":2243,"Place_Name":"6 اكتوبر - الحى الخامس"},{"Place_Id":2244,"Place_Name":"6 اكتوبر - الحى السادس"},{"Place_Id":2245,"Place_Name":"6 اكتوبر - الحى السابع"},{"Place_Id":2246,"Place_Name":"6 اكتوبر - الحى الثامن"},{"Place_Id":2248,"Place_Name":"6 اكتوبر - الحى العاشر"},{"Place_Id":2249,"Place_Name":"6 اكتوبر - الحى الحادى عشر"},{"Place_Id":2250,"Place_Name":"6 اكتوبر - الحى الثانى عشر"},{"Place_Id":2251,"Place_Name":"الحى المتميز"},{"Place_Id":2252,"Place_Name":"غرب سمنود"},{"Place_Id":2254,"Place_Name":"الياسمين"},{"Place_Id":2255,"Place_Name":"الفردوس"},{"Place_Id":2256,"Place_Name":"البشاير"},{"Place_Id":2257,"Place_Name":"حى الاشجار"},{"Place_Id":2258,"Place_Name":"جاردينى بارك"},{"Place_Id":2259,"Place_Name":"بافارلى هيلز"},{"Place_Id":2260,"Place_Name":"بالم هيلز"},{"Place_Id":2373,"Place_Name":"كيت كات"},{"Place_Id":2374,"Place_Name":"كت كات"},{"Place_Id":2376,"Place_Name":"ترسا"},{"Place_Id":2377,"Place_Name":"مشعل"},{"Place_Id":2379,"Place_Name":"اصفيح"},{"Place_Id":2380,"Place_Name":"الطوابق فيصل"},{"Place_Id":2381,"Place_Name":"الكوم الاخضر"},{"Place_Id":2398,"Place_Name":"وراق الحجر"},{"Place_Id":2399,"Place_Name":"المنيب"},{"Place_Id":2400,"Place_Name":"شارع البحر الاعظم "},{"Place_Id":2497,"Place_Name":"خاتم المرسلين"},{"Place_Id":2574,"Place_Name":"الششينى"},{"Place_Id":2579,"Place_Name":"الزمالك"},{"Place_Id":2617,"Place_Name":"حي الاسمارات"},{"Place_Id":2627,"Place_Name":"الازبكية "},{"Place_Id":2628,"Place_Name":"ازبكية"},{"Place_Id":2632,"Place_Name":"العجوزه"},{"Place_Id":2648,"Place_Name":"بولاق ابو العلا"},{"Place_Id":2683,"Place_Name":"وراق الحضر "},{"Place_Id":2690,"Place_Name":"منشية القناطر"},{"Place_Id":2693,"Place_Name":"عمرانيه غربية"},{"Place_Id":2707,"Place_Name":"جامعه الدول"},{"Place_Id":2724,"Place_Name":"النوبريه"},{"Place_Id":2729,"Place_Name":"صالحية"},{"Place_Id":2737,"Place_Name":"القطوري"},{"Place_Id":2743,"Place_Name":"العمرانية "},{"Place_Id":2747,"Place_Name":"الدقى"},{"Place_Id":2749,"Place_Name":"قصر النيل"},{"Place_Id":2752,"Place_Name":"بين السرايات"},{"Place_Id":2757,"Place_Name":"العجوزة"}]