[{"Place_Id":2084,"Place_Name":"الاقصر"},{"Place_Id":2144,"Place_Name":"المنشية"},{"Place_Id":2440,"Place_Name":"الكيمان المطاعنه"},{"Place_Id":2498,"Place_Name":"البياضية"},{"Place_Id":2499,"Place_Name":"حى المطار"},{"Place_Id":2500,"Place_Name":"السواقى"},{"Place_Id":2501,"Place_Name":"العوامية"},{"Place_Id":2502,"Place_Name":"ارمنت"},{"Place_Id":2503,"Place_Name":"الحبيل"},{"Place_Id":2504,"Place_Name":"القرنه "},{"Place_Id":2505,"Place_Name":"الغرب . البعيرات "},{"Place_Id":2506,"Place_Name":"المنشاه العمارى "},{"Place_Id":2507,"Place_Name":"شرق السكه "},{"Place_Id":2508,"Place_Name":"شرق السكة"},{"Place_Id":2510,"Place_Name":"شارع التليفزيون"},{"Place_Id":2516,"Place_Name":"الطود"},{"Place_Id":2518,"Place_Name":"غرب السكة "},{"Place_Id":2519,"Place_Name":"الاقالته"},{"Place_Id":2520,"Place_Name":"شارع المحطه"},{"Place_Id":2521,"Place_Name":"التامين الاجتماعي"},{"Place_Id":2522,"Place_Name":"مدينة طيبة الجديدة"},{"Place_Id":2523,"Place_Name":"نجع الخطباء"},{"Place_Id":2524,"Place_Name":"المحطة"},{"Place_Id":2525,"Place_Name":"المدامود"},{"Place_Id":2526,"Place_Name":"الزينية"},{"Place_Id":2527,"Place_Name":"العديسات"},{"Place_Id":2528,"Place_Name":"البغدادي"},{"Place_Id":2529,"Place_Name":"المريس "},{"Place_Id":2530,"Place_Name":"اسنا"},{"Place_Id":2531,"Place_Name":"الكرنك"},{"Place_Id":2534,"Place_Name":"الغرب - الضبعية"},{"Place_Id":2540,"Place_Name":"الغرب"},{"Place_Id":2560,"Place_Name":"مدينة طيبة "},{"Place_Id":2565,"Place_Name":"العشى "},{"Place_Id":2630,"Place_Name":"قامولا"},{"Place_Id":2654,"Place_Name":"السمانين"},{"Place_Id":2668,"Place_Name":"حى الفيروز"},{"Place_Id":2725,"Place_Name":"نجع السمان"},{"Place_Id":2726,"Place_Name":"الجواهرة "},{"Place_Id":2738,"Place_Name":"نجع الفتاتيح"}]