[{"Place_Id":595,"Place_Name":"منصوره"},{"Place_Id":1023,"Place_Name":"جمصه"},{"Place_Id":1024,"Place_Name":"بلقاس"},{"Place_Id":1025,"Place_Name":"ميت غمر"},{"Place_Id":1026,"Place_Name":"اجا"},{"Place_Id":1027,"Place_Name":"سبنلاوين"},{"Place_Id":1028,"Place_Name":"خط دكرنس"},{"Place_Id":2334,"Place_Name":"شارع المدير"},{"Place_Id":2335,"Place_Name":"شارع البحر"},{"Place_Id":2336,"Place_Name":"منطقة المشاية"},{"Place_Id":2337,"Place_Name":"شارع بور سعيد"},{"Place_Id":2338,"Place_Name":"شارع الثانوية"},{"Place_Id":2339,"Place_Name":"منطقة ميت حدر"},{"Place_Id":2340,"Place_Name":"شارع السكة الجديدة"},{"Place_Id":2341,"Place_Name":"شارع العباسى"},{"Place_Id":2342,"Place_Name":"شارع كلية اداب"},{"Place_Id":2343,"Place_Name":"مدينة طلخا"},{"Place_Id":2344,"Place_Name":"شارع الجلاء"},{"Place_Id":2345,"Place_Name":"منطقة المجزر"},{"Place_Id":2346,"Place_Name":"مدينة الفردوس"},{"Place_Id":2347,"Place_Name":"مدينة العبور"},{"Place_Id":2348,"Place_Name":"شارع سامية الجمل"},{"Place_Id":2349,"Place_Name":"شارع احمد ماهر"},{"Place_Id":2350,"Place_Name":"شارع النخلة"},{"Place_Id":2351,"Place_Name":"تقسيم 6 اكتوبر"},{"Place_Id":2352,"Place_Name":"شارع السلخانة"},{"Place_Id":2353,"Place_Name":"ميدان الشيخ حسانين"},{"Place_Id":2354,"Place_Name":"شارع عبد السلام عارف"},{"Place_Id":2355,"Place_Name":"الاستاد"},{"Place_Id":2356,"Place_Name":"شارع سامى الجمل"},{"Place_Id":2357,"Place_Name":"حى الاشجار"},{"Place_Id":2358,"Place_Name":"مدينة مبارك"},{"Place_Id":2359,"Place_Name":"حى الجامعة"},{"Place_Id":2360,"Place_Name":"شارع الترعة"},{"Place_Id":2361,"Place_Name":"شارع المختلط"},{"Place_Id":2362,"Place_Name":"منطقة مجمع المحاكم"},{"Place_Id":2363,"Place_Name":"سندوب"},{"Place_Id":2364,"Place_Name":"جديلة"},{"Place_Id":2365,"Place_Name":"عزبة الشال"},{"Place_Id":2366,"Place_Name":"الدراسات"},{"Place_Id":2367,"Place_Name":"شارع قناة السويس"},{"Place_Id":2368,"Place_Name":"توريل"},{"Place_Id":2369,"Place_Name":"شارع 10"},{"Place_Id":2370,"Place_Name":"كفر بدماس"},{"Place_Id":2371,"Place_Name":"شربين"},{"Place_Id":2629,"Place_Name":"شارع جيهان"},{"Place_Id":2695,"Place_Name":"حي غرب المنصوره "},{"Place_Id":2696,"Place_Name":"حي غرب المنصورة "},{"Place_Id":2709,"Place_Name":"الطميهى "}]