[{"Place_Id":2078,"Place_Name":"قنا"},{"Place_Id":2415,"Place_Name":"دندره"},{"Place_Id":2433,"Place_Name":"قفط"},{"Place_Id":2434,"Place_Name":"قوص"},{"Place_Id":2435,"Place_Name":"دشنا"},{"Place_Id":2436,"Place_Name":"الوقف"},{"Place_Id":2437,"Place_Name":"نجع حمادى"},{"Place_Id":2438,"Place_Name":"ابوتشت"},{"Place_Id":2441,"Place_Name":"نقاده"},{"Place_Id":2442,"Place_Name":"الاقصر"},{"Place_Id":2472,"Place_Name":"المحروسه"},{"Place_Id":2537,"Place_Name":"المساكن "},{"Place_Id":2561,"Place_Name":"الشؤن"},{"Place_Id":2562,"Place_Name":"دنفيق"},{"Place_Id":2563,"Place_Name":"فرشوط"},{"Place_Id":2564,"Place_Name":"الصالحية "},{"Place_Id":2567,"Place_Name":"البنزيون"},{"Place_Id":2568,"Place_Name":"مدينة العمال "},{"Place_Id":2575,"Place_Name":"المنشية"},{"Place_Id":2585,"Place_Name":"الترامسة"},{"Place_Id":2600,"Place_Name":"حوض 10"},{"Place_Id":2601,"Place_Name":"المنوفية . الشهداء"},{"Place_Id":2604,"Place_Name":"الحصواية"},{"Place_Id":2605,"Place_Name":"جزيرة دندرة"},{"Place_Id":2615,"Place_Name":"نجع سعيد"},{"Place_Id":2624,"Place_Name":"الحميدات"},{"Place_Id":2634,"Place_Name":"عمر افندى"},{"Place_Id":2641,"Place_Name":"الاشراف "},{"Place_Id":2642,"Place_Name":"المخادمه"},{"Place_Id":2649,"Place_Name":"الحجيرات"},{"Place_Id":2681,"Place_Name":"الجزيرية"},{"Place_Id":2722,"Place_Name":"قريه ابنود"},{"Place_Id":2739,"Place_Name":"اولاد عمرو"},{"Place_Id":2741,"Place_Name":"مركز نقادة"},{"Place_Id":2751,"Place_Name":"قوص - حجازة "}]